{
  "norad_id": 59488,
  "name": "STARLINK-31754",
  "history": [
    {
      "epoch": "2026-03-28T18:04:01.317792Z",
      "apogee_km": 484.0606267586436,
      "perigee_km": 482.0197009994763,
      "latitude_deg": 2.5405678812736356e-05,
      "longitude_deg": 142.47941375545918,
      "height_km": 482.7418067228091,
      "semi_major_axis_km": 6861.17716387906,
      "eccentricity": 0.00014873,
      "inclination_deg": 43.001,
      "raan_deg": 239.6536,
      "arg_perigee_deg": 274.2287,
      "mean_anomaly_deg": 85.8395,
      "mean_motion_rev_day": 15.27582983
    },
    {
      "epoch": "2026-03-30T10:52:07.425408Z",
      "apogee_km": 484.2606502321669,
      "perigee_km": 481.990807296238,
      "latitude_deg": -1.8197165826210296e-05,
      "longitude_deg": -120.82384634315967,
      "height_km": 482.6935719375459,
      "semi_major_axis_km": 6861.262728764203,
      "eccentricity": 0.00016541,
      "inclination_deg": 43.0011,
      "raan_deg": 230.0515,
      "arg_perigee_deg": 280.622,
      "mean_anomaly_deg": 79.4445,
      "mean_motion_rev_day": 15.27554408
    }
  ]
}